{
    "links": {
        "self": "http://www.neowsapp.com/rest/v1/neo/3831170?api_key=iIulBulltgU6a56xZRHN4H3l9WmuAYTsLGpBGhQ2"
    },
    "id": "3831170",
    "neo_reference_id": "3831170",
    "name": "(2018 SN3)",
    "designation": "2018 SN3",
    "nasa_jpl_url": "http://ssd.jpl.nasa.gov/sbdb.cgi?sstr=3831170",
    "absolute_magnitude_h": 27.4,
    "estimated_diameter": {
        "kilometers": {
            "estimated_diameter_min": 0.0088014652,
            "estimated_diameter_max": 0.0196806745
        },
        "meters": {
            "estimated_diameter_min": 8.801465209,
            "estimated_diameter_max": 19.6806745089
        },
        "miles": {
            "estimated_diameter_min": 0.0054689752,
            "estimated_diameter_max": 0.0122290004
        },
        "feet": {
            "estimated_diameter_min": 28.8761991163,
            "estimated_diameter_max": 64.5691441559
        }
    },
    "is_potentially_hazardous_asteroid": false,
    "close_approach_data": [
        {
            "close_approach_date": "2016-10-11",
            "close_approach_date_full": "2016-Oct-11 09:49",
            "epoch_date_close_approach": 1476179340000,
            "relative_velocity": {
                "kilometers_per_second": "18.5586380587",
                "kilometers_per_hour": "66811.0970112872",
                "miles_per_hour": "41513.8174734857"
            },
            "miss_distance": {
                "astronomical": "0.3204732379",
                "lunar": "124.6640895431",
                "kilometers": "47942113.781843273",
                "miles": "29789848.1304242474"
            },
            "orbiting_body": "Earth"
        },
        {
            "close_approach_date": "2018-09-16",
            "close_approach_date_full": "2018-Sep-16 10:35",
            "epoch_date_close_approach": 1537094100000,
            "relative_velocity": {
                "kilometers_per_second": "8.1724747314",
                "kilometers_per_hour": "29420.9090330145",
                "miles_per_hour": "18281.0087266528"
            },
            "miss_distance": {
                "astronomical": "0.0055627577",
                "lunar": "2.1639127453",
                "kilometers": "832176.703246099",
                "miles": "517090.6255862062"
            },
            "orbiting_body": "Moon"
        },
        {
            "close_approach_date": "2018-09-16",
            "close_approach_date_full": "2018-Sep-16 19:14",
            "epoch_date_close_approach": 1537125240000,
            "relative_velocity": {
                "kilometers_per_second": "8.9387387505",
                "kilometers_per_hour": "32179.4595016974",
                "miles_per_hour": "19995.0647109297"
            },
            "miss_distance": {
                "astronomical": "0.004052784",
                "lunar": "1.576532976",
                "kilometers": "606287.85397008",
                "miles": "376729.803263904"
            },
            "orbiting_body": "Earth"
        },
        {
            "close_approach_date": "2020-06-02",
            "close_approach_date_full": "2020-Jun-02 14:13",
            "epoch_date_close_approach": 1591107180000,
            "relative_velocity": {
                "kilometers_per_second": "11.6072854067",
                "kilometers_per_hour": "41786.2274639533",
                "miles_per_hour": "25964.3367261437"
            },
            "miss_distance": {
                "astronomical": "0.0906182079",
                "lunar": "35.2504828731",
                "kilometers": "13556290.885057173",
                "miles": "8423488.5536200674"
            },
            "orbiting_body": "Earth"
        },
        {
            "close_approach_date": "2024-09-19",
            "close_approach_date_full": "2024-Sep-19 14:11",
            "epoch_date_close_approach": 1726755060000,
            "relative_velocity": {
                "kilometers_per_second": "7.2654675457",
                "kilometers_per_hour": "26155.6831643838",
                "miles_per_hour": "16252.1243528917"
            },
            "miss_distance": {
                "astronomical": "0.0578624135",
                "lunar": "22.5084788515",
                "kilometers": "8656093.812659245",
                "miles": "5378647.283997781"
            },
            "orbiting_body": "Mars"
        }
    ],
    "orbital_data": {
        "orbit_id": "4",
        "orbit_determination_date": "2018-10-17 08:12:40",
        "first_observation_date": "2018-09-17",
        "last_observation_date": "2018-09-19",
        "data_arc_in_days": 2,
        "observations_used": 19,
        "orbit_uncertainty": "8",
        "minimum_orbit_intersection": ".00324809",
        "jupiter_tisserand_invariant": "4.348",
        "epoch_osculation": "2458379.5",
        "eccentricity": ".4068578347483165",
        "semi_major_axis": "1.55338141329557",
        "inclination": "1.028796787152695",
        "ascending_node_longitude": "184.3398843179333",
        "orbital_period": "707.1565745510774",
        "perihelion_distance": ".9213760149438545",
        "perihelion_argument": "124.9778998954415",
        "aphelion_distance": "2.185386811647285",
        "perihelion_time": "2458342.652570613915",
        "mean_anomaly": "18.75832744312904",
        "mean_motion": ".5090810337562626",
        "equinox": "J2000",
        "orbit_class": {
            "orbit_class_type": "APO",
            "orbit_class_description": "Near-Earth asteroid orbits which cross the Earth’s orbit similar to that of 1862 Apollo",
            "orbit_class_range": "a (semi-major axis) > 1.0 AU; q (perihelion) < 1.017 AU"
        }
    },
    "is_sentry_object": false
}